#aV2008  9 18  0  0   .00000000      96 DD+AD WGS84 FIT  NGA
## 1497 345600.00000000   900.00000000 54727  .0000000000000
+   31     2  3  4  5  6  7  8  9 10 11 12 13 14 15 16 17 18
+         19 20 21 22 23 24 25 26 27 28 29 30 31 32  0  0  0
+          0  0  0  0  0  0  0  0  0  0  0  0  0  0  0  0  0
+          0  0  0  0  0  0  0  0  0  0  0  0  0  0  0  0  0
+          0  0  0  0  0  0  0  0  0  0  0  0  0  0  0  0  0
++         0  0  0  0  0  0  0  0  0  0  0  0  0  0  0  0  0
++         0  0  0  0  0  0  0  0  0  0  0  0  0  0  0  0  0
++         0  0  0  0  0  0  0  0  0  0  0  0  0  0  0  0  0
++         0  0  0  0  0  0  0  0  0  0  0  0  0  0  0  0  0
++         0  0  0  0  0  0  0  0  0  0  0  0  0  0  0  0  0
%c cc cc ccc ccc cccc cccc cccc cccc ccccc ccccc ccccc ccccc
%c cc cc ccc ccc cccc cccc cccc cccc ccccc ccccc ccccc ccccc
%f  0.0000000  0.000000000  0.00000000000  0.000000000000000
%f  0.0000000  0.000000000  0.00000000000  0.000000000000000
%i    0    0    0    0      0      0      0      0         0
%i    0    0    0    0      0      0      0      0         0
/*      NGA, ST. LOUIS,MO.                                  
/*   EPHEMERIS COMPUTED FROM  3 DAYS OF DATA                
/* CCCCCCCCCCCCCCCCCCCCCCCCCCCCCCCCCCCCCCCCCCCCCCCCCCCCCCCCC
/* CCCCCCCCCCCCCCCCCCCCCCCCCCCCCCCCCCCCCCCCCCCCCCCCCCCCCCCCC
*  2008  9 18  5  0   .00000000                                                 
P  2  21993.696425 -13651.319004   4853.574386    186.581060                    
V  2   7341.437528    713.129435 -30766.703397      -.028042                    
P  3 -11310.955355  18456.758932  14873.394984    284.944789                    
V  3  -2934.301842 -19640.943321  22092.333045       .050275                    
P  4  25291.905525  -4957.130913  -7272.303890   -174.551212                    
V  4  -7186.422523   6182.517701 -29274.875893      -.110690                    
P  5  -9836.889332 -19319.886989 -15722.848263    -79.863900                    
V  5  17727.989377   8254.467367 -21506.973793     -1.085024                    
P  6 -14128.225469  14167.603521  17658.313426    165.912111                    
V  6   -412.581950 -22227.169733  17691.608643      -.018524                    
P  7  11364.015532  11155.017571  21243.391620     17.818566                    
V  7 -24563.802936  11258.333131   7122.874216       .023705                    
P  8  22015.858310   2443.089354  14938.082176   -170.506071                    
V  8 -17277.181588   7668.515025  23603.630352      -.017517                    
P  9   5399.604767 -17520.339160 -19816.328666     15.477485                    
V  9  21928.090476  -9297.850689  14801.247494       .018884                    
P 10  13192.033754  -8552.540433  21311.537094     -5.006703                    
V 10  21274.956584  17166.302183  -5919.561185      -.003922                    
P 11  -1407.351828  19114.564457 -18431.424440     19.648118                    
V 11 -20670.058994  11389.938173  13859.920999      -.006958                    
P 12  -3294.286698 -18599.969160 -18637.894966   -350.489405                    
V 12  19860.508639  13139.484494 -16463.388999       .016107                    
P 13   6399.577168  20849.012868  15044.322171    271.465846                    
V 13  -4440.855876  18771.096575 -23935.078025       .012540                    
P 14 -14352.013057  -2310.902906 -22120.581345   -218.398633                    
V 14   4122.441267 -27968.713088    134.265980       .047013                    
P 15   7086.279040 -24784.998689   6391.692986   -179.227614                    
V 15   1953.424294   8333.848048  30292.954278      -.064752                    
P 16 -17575.315216   3620.909816  19709.400471    106.351595                    
V 16 -18992.131752 -16007.445829 -13831.291652      -.020525                    
P 17  14935.388900   3017.900699 -21715.071242     38.987348                    
V 17  -3599.260135  27440.149459   1165.698566       .001956                    
P 18 -19546.498157 -18108.547231   2719.100919   -132.730355                    
V 18   4316.778175   -312.013672  30929.349053       .040793                    
P 19  -8192.225833  24668.313699   4965.901688     35.477600                    
V 19  -1796.369369  -6699.323086  30981.275400       .001715                    
P 20   7107.773191  19693.363026 -16477.629224    104.334422                    
V 20 -18095.481761 -10351.615152 -20281.295190      -.010547                    
P 21 -16919.581953  -8352.166246  19126.350877     50.185735                    
V 21  21509.096803 -10119.153412  14154.244675      -.014836                    
P 22 -22837.681363  -9612.495732  -9488.982667    210.879319                    
V 22  -7664.067525 -10068.384217  28096.159498      -.001087                    
P 23    765.806200  25789.103236   5617.844463    373.566119                    
V 23  -3476.481385   6886.614335 -31089.560085       .014364                    
P 24  -1012.447399 -15910.466057  21434.854953    126.160995                    
V 24  25278.200233  -9028.876473  -5278.162113       .031220                    
P 25   4208.489180  14959.997675  21910.295917   -156.443998                    
V 25 -23713.945371  12792.016156  -4075.301747       .465370                    
P 26  10271.507894 -21767.836251  10106.615445    327.173552                    
V 26   -166.693680  13866.695647  29159.596802       .054910                    
P 27  14461.936978   8885.676810  21137.280491    218.431621                    
V 27 -22239.594451  11964.635994  10413.911001       .029014                    
P 28  22882.168591  11090.465518  -7848.277934    -22.562308                    
V 28   6725.591062   8281.092393  29491.841851      -.002685                    
P 29  -5581.004698 -22902.227028  12380.200589    -37.257291                    
V 29   4389.546155 -15077.433680 -26114.113858       .010378                    
P 30 -16716.324907 -18940.835032  -8706.473610     97.229486                    
V 30  10282.610007   3658.075383 -28800.418533       .019859                    
P 31 -25052.186903   7936.145938  -4016.499809    -27.073715                    
V 31   3908.750874  -4376.449295 -31332.544090      -.023691                    
P 32   -791.348103  17403.941016 -19673.267519    316.338968                    
V 32 -20090.526887 -16314.573079 -13151.073585       .004265                    
EOF
